[{"OBJECT_NAME":"NUSAT-44 (MARIA MITCHELL)","OBJECT_ID":"2024-043AA","EPOCH":"2026-03-09T22:12:18.524160","MEAN_MOTION":15.29764305,"ECCENTRICITY":0.0007331,"INCLINATION":97.5299,"RA_OF_ASC_NODE":207.7691,"ARG_OF_PERICENTER":214.9017,"MEAN_ANOMALY":145.1743,"EPHEMERIS_TYPE":0,"CLASSIFICATION_TYPE":"U","NORAD_CAT_ID":59122,"ELEMENT_SET_NO":999,"REV_AT_EPOCH":11209,"BSTAR":0.00061063193,"MEAN_MOTION_DOT":0.00017562,"MEAN_MOTION_DDOT":0},{"OBJECT_NAME":"STARLINK-32428","OBJECT_ID":"2024-193F","EPOCH":"2026-03-09T11:02:31.536672","MEAN_MOTION":15.30192998,"ECCENTRICITY":0.00012854,"INCLINATION":53.1596,"RA_OF_ASC_NODE":91.917,"ARG_OF_PERICENTER":77.468,"MEAN_ANOMALY":282.6465,"EPHEMERIS_TYPE":0,"CLASSIFICATION_TYPE":"U","NORAD_CAT_ID":61666,"ELEMENT_SET_NO":999,"REV_AT_EPOCH":7649,"BSTAR":6.8204523e-5,"MEAN_MOTION_DOT":1.661e-5,"MEAN_MOTION_DDOT":0}]
